NORAD_CAT_ID,OBJECT_NAME,OBJECT_TYPE,EPOCH,MEAN_MOTION,ECCENTRICITY,INCLINATION,RA_OF_ASC_NODE,ARG_OF_PERICENTER,MEAN_ANOMALY,BSTAR,MEAN_MOTION_DOT,MEAN_MOTION_DDOT,TLE_LINE0,TLE_LINE1,TLE_LINE2,SEMIMAJOR_AXIS,PERIOD,APOGEE,PERIGEE,DECAYED
51105.0,STARLINK-3350,PAYLOAD,2022-12-26 18:36:18,15.08842482,0.0002507,53.2162,136.5956,45.2691,314.8505,0.00015194,2.131e-05,0.0,0 STARLINK-3350,1 51105U 22005B   22360.77521851  .00002131  00000-0  15194-3 0  9990,2 51105  53.2162 136.5956 0002507  45.2691 314.8505 15.08842482 52419,6917.873000000001,95.437,541.472,538.003,0.0
51105.0,STARLINK-3350,PAYLOAD,2022-12-27 18:27:04,15.08852479,0.0002525,53.216,132.1346,47.4774,312.6431,0.00019565,2.828e-05,0.0,0 STARLINK-3350,1 51105U 22005B   22361.76880712  .00002828  00000-0  19565-3 0  9993,2 51105  53.2160 132.1346 0002525  47.4774 312.6431 15.08852479 53678,6917.842,95.437,541.4540000000002,537.96,0.0
51105.0,STARLINK-3350,PAYLOAD,2022-12-28 11:56:17,15.08920803,0.0003085,53.2159,128.862,47.6605,312.4648,-0.00088343,-0.00014353,0.0,0 STARLINK-3350,1 51105U 22005B   22362.49742747 -.00014353  00000-0 -88343-3 0  9997,2 51105  53.2159 128.8620 0003085  47.6605 312.4648 15.08920803 53787,6917.6330000000025,95.432,541.633,537.364,0.0
51105.0,STARLINK-3350,PAYLOAD,2022-12-29 11:47:07,15.08851816,0.0002807,53.2165,124.4014,41.715,318.4056,-0.00042447,-7.04e-05,0.0,0 STARLINK-3350,1 51105U 22005B   22363.49106172 -.00007040  00000-0 -42447-3 0  9994,2 51105  53.2165 124.4014 0002807  41.7150 318.4056 15.08851816 53937,6917.844,95.437,541.651,537.7669999999998,0.0
51105.0,STARLINK-3350,PAYLOAD,2022-12-29 14:57:54,15.08833801,0.0002447,53.2164,123.8076,42.871,317.2472,-0.0001797,-3.147e-05,0.0,0 STARLINK-3350,1 51105U 22005B   22363.62354188 -.00003147  00000-0 -17970-3 0  9998,2 51105  53.2164 123.8076 0002447  42.8710 317.2472 15.08833801 53956,6917.899,95.438,541.457,538.072,0.0
51105.0,STARLINK-3350,PAYLOAD,2022-12-30 13:13:17,15.08835398,0.0002438,53.2168,119.6435,41.4827,318.635,7.1209e-05,8.45e-06,0.0,0 STARLINK-3350,1 51105U 22005B   22364.55089430  .00000845  00000-0  71209-4 0  9992,2 51105  53.2168 119.6435 0002438  41.4827 318.6350 15.08835398 54095,6917.894,95.438,541.446,538.073,0.0
51105.0,STARLINK-3350,PAYLOAD,2022-12-30 14:48:39,15.08841679,0.0002581,53.2161,119.3478,37.6886,322.4286,0.00017426,2.486e-05,0.0,0 STARLINK-3350,1 51105U 22005B   22364.61712852  .00002486  00000-0  17426-3 0  9993,2 51105  53.2161 119.3478 0002581  37.6886 322.4286 15.08841679 54105,6917.875,95.437,541.526,537.955,0.0
51105.0,STARLINK-3350,PAYLOAD,2022-12-31 00:20:57,15.08852435,0.0002454,53.2153,117.5643,41.3672,318.7505,0.0002719,4.043e-05,0.0,0 STARLINK-3350,1 51105U 22005B   22365.01455754  .00004043  00000-0  27190-3 0  9993,2 51105  53.2153 117.5643 0002454  41.3672 318.7505 15.08852435 54164,6917.842,95.437,541.405,538.01,0.0
51105.0,STARLINK-3350,PAYLOAD,2022-12-31 11:28:41,15.08830371,0.0002343999999999,53.2158,115.482,35.9041,324.2108,5.9015e-05,6.51e-06,0.0,0 STARLINK-3350,1 51105U 22005B   22365.47825623  .00000651  00000-0  59015-4 0  9992,2 51105  53.2158 115.4820 0002344  35.9041 324.2108 15.08830371 54234,6917.91,95.438,541.396,538.153,0.0
51105.0,STARLINK-3350,PAYLOAD,2022-12-31 17:50:14,15.08821488,0.000234,53.2169,114.2945,33.1688,326.9451,0.00014706,2.052e-05,0.0,0 STARLINK-3350,1 51105U 22005B   22365.74322310  .00002052  00000-0  14706-3 0  9991,2 51105  53.2169 114.2945 0002340  33.1688 326.9451 15.08821488 53164,6917.937,95.439,541.4209999999998,538.183,0.0
51105.0,STARLINK-3350,PAYLOAD,2023-01-01 06:33:20,15.08746844,0.0002918999999999,53.2177,111.915,41.255,318.8662,0.00093849,0.00014642,0.0,0 STARLINK-3350,1 51105U 22005B   23001.27315330  .00014642  00000-0  93849-3 0  9994,2 51105  53.2177 111.9150 0002919  41.2550 318.8662 15.08746844 54353,6918.165,95.443,542.05,538.011,0.0
51105.0,STARLINK-3350,PAYLOAD,2023-01-01 08:08:42,15.08838816,0.0002441999999999,53.216,111.616,36.2358,323.8799,-6.272399999999999e-05,-1.287e-05,0.0,0 STARLINK-3350,1 51105U 22005B   23001.33938200 -.00001287  00000-0 -62724-4 0  9990,2 51105  53.2160 111.6160 0002442  36.2358 323.8799 15.08838816 54363,6917.884,95.438,541.438,538.06,0.0
51105.0,STARLINK-3350,PAYLOAD,2023-01-01 11:19:28,15.08843006,0.0002290999999999,53.2161,111.0227,34.2304,325.8835,-2.342300000000001e-05,-6.61e-06,0.0,0 STARLINK-3350,1 51105U 22005B   23001.47185798 -.00000661  00000-0 -23423-4 0  9999,2 51105  53.2161 111.0227 0002291  34.2304 325.8835 15.08843006 53272,6917.871,95.437,541.321,538.151,0.0
51105.0,STARLINK-3350,PAYLOAD,2023-01-01 17:41:00,15.08849958,0.0002523,53.2165,109.8322,36.3701,323.7462,3.2261e-05,2.25e-06,0.0,0 STARLINK-3350,1 51105U 22005B   23001.73681219  .00000225  00000-0  32261-4 0  9991,2 51105  53.2165 109.8322 0002523  36.3701 323.7462 15.08849958 53319,6917.85,95.437,541.46,537.97,0.0
51105.0,STARLINK-3350,PAYLOAD,2023-01-02 00:02:33,15.08851833,0.0002526999999999,53.2175,108.6434,39.7188,320.3989,-1.1928e-05,-4.78e-06,0.0,0 STARLINK-3350,1 51105U 22005B   23002.00177093 -.00000478  00000-0 -11928-4 0  9991,2 51105  53.2175 108.6434 0002527  39.7188 320.3989 15.08851833 54460,6917.844,95.437,541.457,537.961,0.0
51105.0,STARLINK-3350,PAYLOAD,2023-01-02 07:59:28,15.08842503,0.0002465,53.2169,107.1562,36.6832,323.4328,1.5215e-05,-4.6e-07,0.0,0 STARLINK-3350,1 51105U 22005B   23002.33297210 -.00000046  00000-0  15215-4 0  9994,2 51105  53.2169 107.1562 0002465  36.6832 323.4328 15.08842503 54513,6917.873000000001,95.437,541.443,538.0319999999998,0.0
51105.0,STARLINK-3350,PAYLOAD,2023-01-02 15:56:24,15.08834988,0.0002481999999999,53.2158,105.669,35.5777,324.5381,0.00011046,1.47e-05,0.0,0 STARLINK-3350,1 51105U 22005B   23002.66417701  .00001470  00000-0  11046-3 0  9997,2 51105  53.2158 105.6690 0002482  35.5777 324.5381 15.08834988 54565,6917.896,95.438,541.4780000000002,538.044,0.0
51105.0,STARLINK-3350,PAYLOAD,2023-01-03 12:36:25,15.08840365,0.0002393,53.2158,101.8041,32.602,327.5119,0.00014518,2.023e-05,0.0,0 STARLINK-3350,1 51105U 22005B   23003.52529791  .00002023  00000-0  14518-3 0  9998,2 51105  53.2158 101.8041 0002393  32.6020 327.5119 15.08840365 53582,6917.879,95.438,541.4,538.089,0.0
51105.0,STARLINK-3350,PAYLOAD,2023-01-04 12:27:12,15.08842244,0.0002686999999999,53.2159,97.346,30.8448,329.2701,8.317e-05,1.036e-05,0.0,0 STARLINK-3350,1 51105U 22005B   23004.51889995  .00001036  00000-0  83170-4 0  9997,2 51105  53.2159  97.3460 0002687  30.8448 329.2701 15.08842244 54841,6917.874,95.437,541.597,537.88,0.0
51105.0,STARLINK-3350,PAYLOAD,2023-01-05 05:56:26,15.08862976,0.0002477,53.216,94.0727,31.9637,328.1505,0.00039406,5.993e-05,0.0,0 STARLINK-3350,1 51105U 22005B   23005.24752602  .00005993  00000-0  39406-3 0  9990,2 51105  53.2160  94.0727 0002477  31.9637 328.1505 15.08862976 54958,6917.81,95.436,541.389,537.962,0.0
51105.0,STARLINK-3350,PAYLOAD,2023-01-05 12:17:58,15.08868592,0.0002578,53.2157,92.8833,34.1595,325.9563,0.00050852,7.821e-05,0.0,0 STARLINK-3350,1 51105U 22005B   23005.51248350  .00007821  00000-0  50852-3 0  9990,2 51105  53.2157  92.8833 0002578  34.1595 325.9563 15.08868592 53888,6917.793000000002,95.436,541.441,537.875,0.0
51105.0,STARLINK-3350,PAYLOAD,2023-01-05 15:28:44,15.08869217,0.0002616,53.2159,92.2891,32.6587,327.4566,0.00043244,6.606e-05,0.0,0 STARLINK-3350,1 51105U 22005B   23005.64496194  .00006606  00000-0  43244-3 0  9992,2 51105  53.2159  92.2891 0002616  32.6587 327.4566 15.08869217 53903,6917.791,95.436,541.466,537.846,0.0
51105.0,STARLINK-3350,PAYLOAD,2023-01-06 05:47:12,15.08849373,0.0002378,53.216,89.6132,29.1345,330.9779,-0.0001382,-2.488e-05,0.0,0 STARLINK-3350,1 51105U 22005B   23006.24112175 -.00002488  00000-0 -13820-3 0  9996,2 51105  53.2160  89.6132 0002378  29.1345 330.9779 15.08849373 55101,6917.852,95.437,541.362,538.072,0.0
51105.0,STARLINK-3350,PAYLOAD,2023-01-06 12:08:46,15.08812663,0.0002459,53.2161,88.4233,23.1806,336.9296,-0.00093978,-0.00015203,0.0,0 STARLINK-3350,1 51105U 22005B   23006.50609124 -.00015203  00000-0 -93978-3 0  9991,2 51105  53.2161  88.4233 0002459  23.1806 336.9296 15.08812663 55143,6917.964,95.439,541.53,538.128,0.0
51105.0,STARLINK-3350,PAYLOAD,2023-01-06 15:19:32,15.08808601,0.0002485,53.2162,87.8283,22.4934,337.6167,-0.00082096,-0.0001332,0.0,0 STARLINK-3350,1 51105U 22005B   23006.63857517 -.00013320  00000-0 -82096-3 0  9993,2 51105  53.2162  87.8283 0002485  22.4934 337.6167 15.08808601 54056,6917.976,95.44,541.56,538.122,0.0
51105.0,STARLINK-3350,PAYLOAD,2023-01-07 05:38:01,15.08827961,0.0002344,53.2161,85.1537,14.0845,346.0212,0.00033385,5.027e-05,0.0,0 STARLINK-3350,1 51105U 22005B   23007.23474006  .00005027  00000-0  33385-3 0  9998,2 51105  53.2161  85.1537 0002344  14.0845 346.0212 15.08827961 55258,6917.917,95.438,541.404,538.161,0.0
51105.0,STARLINK-3350,PAYLOAD,2023-01-07 21:31:53,15.0882513,0.0002561,53.2178,82.179,20.8867,339.2229,0.00044704,6.831e-05,0.0,0 STARLINK-3350,1 51105U 22005B   23007.89714961  .00006831  00000-0  44704-3 0  9998,2 51105  53.2178  82.1790 0002561  20.8867 339.2229 15.08825130 54240,6917.926,95.438,541.563,538.019,0.0
51105.0,STARLINK-3350,PAYLOAD,2023-01-08 03:53:26,15.0882659,0.0002538,53.2173,80.9901,22.4411,337.6692,0.00024201,3.564e-05,0.0,0 STARLINK-3350,1 51105U 22005B   23008.16211154  .00003564  00000-0  24201-3 0  9995,2 51105  53.2173  80.9901 0002538  22.4411 337.6692 15.08826590 55396,6917.920999999999,95.438,541.5419999999998,538.031,0.0
51105.0,STARLINK-3350,PAYLOAD,2023-01-08 11:50:22,15.08835336,0.0002634999999999,53.2162,79.5037,22.7532,337.3577,0.00046262,7.081e-05,0.0,0 STARLINK-3350,1 51105U 22005B   23008.49331071  .00007081  00000-0  46262-3 0  9991,2 51105  53.2162  79.5037 0002635  22.7532 337.3577 15.08835336 54333,6917.895,95.438,541.5830000000002,537.937,0.0
